OCO 2                   
1 40059U 14035A   26061.78600476  .00000673  00000+0  15956-3 0  9998
2 40059  98.2190   4.7297 0001139  91.1710 268.9619 14.57083965620558
BRITE-PL2 (HEWELIUSZ)   
1 40119U 14049B   26061.77534979  .00003191  00000+0  30314-3 0  9996
2 40119  97.8979 173.0662 0015457 102.6596 257.6353 14.94135220625557
MMS 1                   
1 40482U 15011A   26061.91668981 -.00002075  00000+0  00000+0 0  9992
2 40482  70.7048 350.2381 8414265 165.1728 259.0083  0.28294458  1323
MMS 2                   
1 40483U 15011B   26061.91668981 -.00002075  00000+0  00000+0 0  9993
2 40483  70.7044 350.2400 8415010 165.1840 258.9690  0.28299808  1322
MMS 3                   
1 40484U 15011C   26061.91668981 -.00002075  00000+0  00000+0 0  9994
2 40484  70.7067 350.2447 8414296 165.1781 258.9779  0.28299777  1321
MMS 4                   
1 40485U 15011D   26061.91668981 -.00002075  00000+0  00000+0 0  9995
2 40485  70.7056 350.2400 8413780 165.1804 258.9861  0.28294451  1328
ASTROSAT                
1 40930U 15052A   26061.72470257  .00002336  00000+0  20356-3 0  9990
2 40930   5.9959 201.5623 0008499 312.2104  47.7302 14.82274423564002
DAMPE                   
1 41173U 15078A   26061.87002402  .00001635  00000+0  58001-4 0  9997
2 41173  97.4576  66.8276 0013870  92.3895 267.8933 15.30467936568287
PISAT                   
1 41784U 16059B   26061.60389564  .00001329  00000+0  23458-3 0  9990
2 41784  97.8188  66.6531 0028974 183.2054 176.8971 14.68752297504095
HXMT (HUIYAN)           
1 42758U 17034A   26061.86602787  .00006353  00000+0  32002-3 0  9996
2 42758  43.0149  54.6060 0032156 194.0063 165.9896 15.17355273481501
FLYING LAPTOP           
1 42831U 17042G   26061.84261507  .00006380  00000+0  50945-3 0  9992
2 42831  97.4246 221.8228 0018412 117.7950 242.5143 15.00464126470509
ZHANGHENG 1-01 (CSES-1) 
1 43194U 18015C   26061.87880189  .00012104  00000+0  54944-3 0  9996
2 43194  97.6736 225.4838 0014847 269.9127  90.0406 15.20853106448481
SALSAT                  
1 46495U 20068K   26061.53547552  .00011172  00000+0  41124-3 0  9991
2 46495  97.8844  58.2509 0008864 326.6723  33.3956 15.28007427299065
IXPE                    
1 49954U 21121A   26061.83335647  .00013521  00000+0  77056-3 0  9991
2 49954   0.2312  41.3058 0007582 272.5108   1.1206 15.09098226  5815
