[{"OBJECT_NAME":"OCO 2","OBJECT_ID":"2014-035A","EPOCH":"2026-03-02T18:51:50.811264","MEAN_MOTION":14.57083965,"ECCENTRICITY":0.0001139,"INCLINATION":98.219,"RA_OF_ASC_NODE":4.7297,"ARG_OF_PERICENTER":91.171,"MEAN_ANOMALY":268.9619,"EPHEMERIS_TYPE":0,"CLASSIFICATION_TYPE":"U","NORAD_CAT_ID":40059,"ELEMENT_SET_NO":999,"REV_AT_EPOCH":62055,"BSTAR":0.00015956,"MEAN_MOTION_DOT":6.73e-6,"MEAN_MOTION_DDOT":0},{"OBJECT_NAME":"BRITE-PL2 (HEWELIUSZ)","OBJECT_ID":"2014-049B","EPOCH":"2026-03-02T18:36:30.221856","MEAN_MOTION":14.9413522,"ECCENTRICITY":0.0015457,"INCLINATION":97.8979,"RA_OF_ASC_NODE":173.0662,"ARG_OF_PERICENTER":102.6596,"MEAN_ANOMALY":257.6353,"EPHEMERIS_TYPE":0,"CLASSIFICATION_TYPE":"U","NORAD_CAT_ID":40119,"ELEMENT_SET_NO":999,"REV_AT_EPOCH":62555,"BSTAR":0.00030314,"MEAN_MOTION_DOT":3.191e-5,"MEAN_MOTION_DDOT":0},{"OBJECT_NAME":"MMS 1","OBJECT_ID":"2015-011A","EPOCH":"2026-03-02T22:00:01.999584","MEAN_MOTION":0.28294458,"ECCENTRICITY":0.8414265,"INCLINATION":70.7048,"RA_OF_ASC_NODE":350.2381,"ARG_OF_PERICENTER":165.1728,"MEAN_ANOMALY":259.0083,"EPHEMERIS_TYPE":0,"CLASSIFICATION_TYPE":"U","NORAD_CAT_ID":40482,"ELEMENT_SET_NO":999,"REV_AT_EPOCH":132,"BSTAR":0,"MEAN_MOTION_DOT":-2.075e-5,"MEAN_MOTION_DDOT":0},{"OBJECT_NAME":"MMS 2","OBJECT_ID":"2015-011B","EPOCH":"2026-03-02T22:00:01.999584","MEAN_MOTION":0.28299808,"ECCENTRICITY":0.841501,"INCLINATION":70.7044,"RA_OF_ASC_NODE":350.24,"ARG_OF_PERICENTER":165.184,"MEAN_ANOMALY":258.969,"EPHEMERIS_TYPE":0,"CLASSIFICATION_TYPE":"U","NORAD_CAT_ID":40483,"ELEMENT_SET_NO":999,"REV_AT_EPOCH":132,"BSTAR":0,"MEAN_MOTION_DOT":-2.075e-5,"MEAN_MOTION_DDOT":0},{"OBJECT_NAME":"MMS 3","OBJECT_ID":"2015-011C","EPOCH":"2026-03-02T22:00:01.999584","MEAN_MOTION":0.28299777,"ECCENTRICITY":0.8414296,"INCLINATION":70.7067,"RA_OF_ASC_NODE":350.2447,"ARG_OF_PERICENTER":165.1781,"MEAN_ANOMALY":258.9779,"EPHEMERIS_TYPE":0,"CLASSIFICATION_TYPE":"U","NORAD_CAT_ID":40484,"ELEMENT_SET_NO":999,"REV_AT_EPOCH":132,"BSTAR":0,"MEAN_MOTION_DOT":-2.075e-5,"MEAN_MOTION_DDOT":0},{"OBJECT_NAME":"MMS 4","OBJECT_ID":"2015-011D","EPOCH":"2026-03-02T22:00:01.999584","MEAN_MOTION":0.28294451,"ECCENTRICITY":0.841378,"INCLINATION":70.7056,"RA_OF_ASC_NODE":350.24,"ARG_OF_PERICENTER":165.1804,"MEAN_ANOMALY":258.9861,"EPHEMERIS_TYPE":0,"CLASSIFICATION_TYPE":"U","NORAD_CAT_ID":40485,"ELEMENT_SET_NO":999,"REV_AT_EPOCH":132,"BSTAR":0,"MEAN_MOTION_DOT":-2.075e-5,"MEAN_MOTION_DDOT":0},{"OBJECT_NAME":"ASTROSAT","OBJECT_ID":"2015-052A","EPOCH":"2026-03-02T17:23:34.302048","MEAN_MOTION":14.82274423,"ECCENTRICITY":0.0008499,"INCLINATION":5.9959,"RA_OF_ASC_NODE":201.5623,"ARG_OF_PERICENTER":312.2104,"MEAN_ANOMALY":47.7302,"EPHEMERIS_TYPE":0,"CLASSIFICATION_TYPE":"U","NORAD_CAT_ID":40930,"ELEMENT_SET_NO":999,"REV_AT_EPOCH":56400,"BSTAR":0.00020356,"MEAN_MOTION_DOT":2.336e-5,"MEAN_MOTION_DDOT":0},{"OBJECT_NAME":"DAMPE","OBJECT_ID":"2015-078A","EPOCH":"2026-03-02T20:52:50.075328","MEAN_MOTION":15.30467936,"ECCENTRICITY":0.001387,"INCLINATION":97.4576,"RA_OF_ASC_NODE":66.8276,"ARG_OF_PERICENTER":92.3895,"MEAN_ANOMALY":267.8933,"EPHEMERIS_TYPE":0,"CLASSIFICATION_TYPE":"U","NORAD_CAT_ID":41173,"ELEMENT_SET_NO":999,"REV_AT_EPOCH":56828,"BSTAR":5.8001e-5,"MEAN_MOTION_DOT":1.635e-5,"MEAN_MOTION_DDOT":0},{"OBJECT_NAME":"PISAT","OBJECT_ID":"2016-059B","EPOCH":"2026-03-02T14:29:36.583296","MEAN_MOTION":14.68752297,"ECCENTRICITY":0.0028974,"INCLINATION":97.8188,"RA_OF_ASC_NODE":66.6531,"ARG_OF_PERICENTER":183.2054,"MEAN_ANOMALY":176.8971,"EPHEMERIS_TYPE":0,"CLASSIFICATION_TYPE":"U","NORAD_CAT_ID":41784,"ELEMENT_SET_NO":999,"REV_AT_EPOCH":50409,"BSTAR":0.00023458,"MEAN_MOTION_DOT":1.329e-5,"MEAN_MOTION_DDOT":0},{"OBJECT_NAME":"HXMT (HUIYAN)","OBJECT_ID":"2017-034A","EPOCH":"2026-03-02T20:47:04.807968","MEAN_MOTION":15.17355273,"ECCENTRICITY":0.0032156,"INCLINATION":43.0149,"RA_OF_ASC_NODE":54.606,"ARG_OF_PERICENTER":194.0063,"MEAN_ANOMALY":165.9896,"EPHEMERIS_TYPE":0,"CLASSIFICATION_TYPE":"U","NORAD_CAT_ID":42758,"ELEMENT_SET_NO":999,"REV_AT_EPOCH":48150,"BSTAR":0.00032002,"MEAN_MOTION_DOT":6.353e-5,"MEAN_MOTION_DDOT":0},{"OBJECT_NAME":"FLYING LAPTOP","OBJECT_ID":"2017-042G","EPOCH":"2026-03-02T20:13:21.942048","MEAN_MOTION":15.00464126,"ECCENTRICITY":0.0018412,"INCLINATION":97.4246,"RA_OF_ASC_NODE":221.8228,"ARG_OF_PERICENTER":117.795,"MEAN_ANOMALY":242.5143,"EPHEMERIS_TYPE":0,"CLASSIFICATION_TYPE":"U","NORAD_CAT_ID":42831,"ELEMENT_SET_NO":999,"REV_AT_EPOCH":47050,"BSTAR":0.00050945,"MEAN_MOTION_DOT":6.38e-5,"MEAN_MOTION_DDOT":0},{"OBJECT_NAME":"ZHANGHENG 1-01 (CSES-1)","OBJECT_ID":"2018-015C","EPOCH":"2026-03-02T21:05:28.483296","MEAN_MOTION":15.20853106,"ECCENTRICITY":0.0014847,"INCLINATION":97.6736,"RA_OF_ASC_NODE":225.4838,"ARG_OF_PERICENTER":269.9127,"MEAN_ANOMALY":90.0406,"EPHEMERIS_TYPE":0,"CLASSIFICATION_TYPE":"U","NORAD_CAT_ID":43194,"ELEMENT_SET_NO":999,"REV_AT_EPOCH":44848,"BSTAR":0.00054944,"MEAN_MOTION_DOT":0.00012104,"MEAN_MOTION_DDOT":0},{"OBJECT_NAME":"SALSAT","OBJECT_ID":"2020-068K","EPOCH":"2026-03-02T12:51:05.084928","MEAN_MOTION":15.28007427,"ECCENTRICITY":0.0008864,"INCLINATION":97.8844,"RA_OF_ASC_NODE":58.2509,"ARG_OF_PERICENTER":326.6723,"MEAN_ANOMALY":33.3956,"EPHEMERIS_TYPE":0,"CLASSIFICATION_TYPE":"U","NORAD_CAT_ID":46495,"ELEMENT_SET_NO":999,"REV_AT_EPOCH":29906,"BSTAR":0.00041124,"MEAN_MOTION_DOT":0.00011172,"MEAN_MOTION_DDOT":0},{"OBJECT_NAME":"IXPE","OBJECT_ID":"2021-121A","EPOCH":"2026-03-02T20:00:01.999008","MEAN_MOTION":15.09098226,"ECCENTRICITY":0.0007582,"INCLINATION":0.2312,"RA_OF_ASC_NODE":41.3058,"ARG_OF_PERICENTER":272.5108,"MEAN_ANOMALY":1.1206,"EPHEMERIS_TYPE":0,"CLASSIFICATION_TYPE":"U","NORAD_CAT_ID":49954,"ELEMENT_SET_NO":999,"REV_AT_EPOCH":581,"BSTAR":0.00077056,"MEAN_MOTION_DOT":0.00013521,"MEAN_MOTION_DDOT":0}]
